IRIDIUM 63              
1 25286U 98021B   25199.59397265  .00000263  00000+0  82971-4 0  9996
2 25286  86.3950  68.9531 0002158  91.4645 268.6800 14.36563114428359
IRIDIUM 69              
1 25319U 98026A   25199.78800122  .00000316  00000+0  92040-4 0  9997
2 25319  86.3950  82.0681 0000590 346.1896  13.9287 14.40991240427613
IRIDIUM 71              
1 25320U 98026B   25199.37412132  .00000282  00000+0  81350-4 0  9998
2 25320  86.3946  76.9275 0002674  35.7629 324.3749 14.41177300428089
IRIDIUM 73              
1 25344U 98032C   25199.49291005  .00000393  00000+0  92853-4 0  9991
2 25344  86.4395  33.5143 0001642  98.0197 262.1195 14.51739524435101
IRIDIUM 82              
1 25467U 98051A   25199.88538301  .00018867  00000+0  52153-3 0  9997
2 25467  86.3653  94.1380 0083256 173.8373 186.3924 15.33381412428815
